[{"OBJECT_NAME":"FLOCK 4H-31","OBJECT_ID":"2025-276BW","EPOCH":"2026-03-09T04:12:33.777216","MEAN_MOTION":15.18403847,"ECCENTRICITY":0.00040262,"INCLINATION":97.4236,"RA_OF_ASC_NODE":143.3458,"ARG_OF_PERICENTER":29.5854,"MEAN_ANOMALY":330.5607,"EPHEMERIS_TYPE":0,"CLASSIFICATION_TYPE":"U","NORAD_CAT_ID":66734,"ELEMENT_SET_NO":999,"REV_AT_EPOCH":1523,"BSTAR":0.00041894151,"MEAN_MOTION_DOT":8.555e-5,"MEAN_MOTION_DDOT":0},{"OBJECT_NAME":"COSMOS 1275 DEB","OBJECT_ID":"1981-053GB","EPOCH":"2026-03-09T12:07:35.563872","MEAN_MOTION":15.18010704,"ECCENTRICITY":0.0001087,"INCLINATION":82.9638,"RA_OF_ASC_NODE":94.4677,"ARG_OF_PERICENTER":59.5109,"MEAN_ANOMALY":300.6233,"EPHEMERIS_TYPE":0,"CLASSIFICATION_TYPE":"U","NORAD_CAT_ID":13481,"ELEMENT_SET_NO":999,"REV_AT_EPOCH":25258,"BSTAR":0.0069311321,"MEAN_MOTION_DOT":0.00143562,"MEAN_MOTION_DDOT":0}]
